[{"OBJECT_NAME":"IRIDIUM 33 DEB","OBJECT_ID":"1997-051SW","EPOCH":"2023-09-15T03:15:36.294336","MEAN_MOTION":14.37364583,"ECCENTRICITY":0.0018226,"INCLINATION":86.3774,"RA_OF_ASC_NODE":46.6974,"ARG_OF_PERICENTER":1.5033,"MEAN_ANOMALY":358.6216,"EPHEMERIS_TYPE":0,"CLASSIFICATION_TYPE":"U","NORAD_CAT_ID":35846,"ELEMENT_SET_NO":999,"REV_AT_EPOCH":59531,"BSTAR":0.00078532,"MEAN_MOTION_DOT":2.367e-5,"MEAN_MOTION_DDOT":0},{"OBJECT_NAME":"IRIDIUM 33 DEB","OBJECT_ID":"1997-051SY","EPOCH":"2023-09-14T14:41:00.540384","MEAN_MOTION":14.55566704,"ECCENTRICITY":0.0015513,"INCLINATION":86.4023,"RA_OF_ASC_NODE":17.2531,"ARG_OF_PERICENTER":149.2338,"MEAN_ANOMALY":210.9782,"EPHEMERIS_TYPE":0,"CLASSIFICATION_TYPE":"U","NORAD_CAT_ID":35848,"ELEMENT_SET_NO":999,"REV_AT_EPOCH":54673,"BSTAR":0.0020236,"MEAN_MOTION_DOT":8.857e-5,"MEAN_MOTION_DDOT":0},{"OBJECT_NAME":"IRIDIUM 33 DEB","OBJECT_ID":"1997-051TA","EPOCH":"2023-09-14T23:46:46.420320","MEAN_MOTION":14.56166661,"ECCENTRICITY":0.0019158,"INCLINATION":86.3625,"RA_OF_ASC_NODE":349.4936,"ARG_OF_PERICENTER":139.013,"MEAN_ANOMALY":221.2522,"EPHEMERIS_TYPE":0,"CLASSIFICATION_TYPE":"U","NORAD_CAT_ID":35850,"ELEMENT_SET_NO":999,"REV_AT_EPOCH":59342,"BSTAR":0.0015276,"MEAN_MOTION_DOT":6.782e-5,"MEAN_MOTION_DDOT":0},{"OBJECT_NAME":"IRIDIUM 33 DEB","OBJECT_ID":"1997-051TH","EPOCH":"2023-09-14T00:07:10.735968","MEAN_MOTION":14.96629729,"ECCENTRICITY":0.0039608,"INCLINATION":86.4259,"RA_OF_ASC_NODE":356.1244,"ARG_OF_PERICENTER":221.7264,"MEAN_ANOMALY":138.0945,"EPHEMERIS_TYPE":0,"CLASSIFICATION_TYPE":"U","NORAD_CAT_ID":35857,"ELEMENT_SET_NO":999,"REV_AT_EPOCH":58990,"BSTAR":0.0089111,"MEAN_MOTION_DOT":0.00104528,"MEAN_MOTION_DDOT":0},{"OBJECT_NAME":"IRIDIUM 33 DEB","OBJECT_ID":"1997-051TP","EPOCH":"2023-09-15T07:22:37.130880","MEAN_MOTION":14.92695358,"ECCENTRICITY":0.004898,"INCLINATION":86.337,"RA_OF_ASC_NODE":11.4658,"ARG_OF_PERICENTER":233.4768,"MEAN_ANOMALY":126.1945,"EPHEMERIS_TYPE":0,"CLASSIFICATION_TYPE":"U","NORAD_CAT_ID":35863,"ELEMENT_SET_NO":999,"REV_AT_EPOCH":74470,"BSTAR":0.0078388,"MEAN_MOTION_DOT":0.00083598,"MEAN_MOTION_DDOT":0},{"OBJECT_NAME":"IRIDIUM 33 DEB","OBJECT_ID":"1997-051TU","EPOCH":"2023-09-15T05:43:19.105248","MEAN_MOTION":14.40959425,"ECCENTRICITY":0.0077151,"INCLINATION":86.2363,"RA_OF_ASC_NODE":357.1612,"ARG_OF_PERICENTER":310.2761,"MEAN_ANOMALY":49.1709,"EPHEMERIS_TYPE":0,"CLASSIFICATION_TYPE":"U","NORAD_CAT_ID":35911,"ELEMENT_SET_NO":999,"REV_AT_EPOCH":75050,"BSTAR":0.0035584,"MEAN_MOTION_DOT":0.00011865,"MEAN_MOTION_DDOT":0},{"OBJECT_NAME":"IRIDIUM 33 DEB","OBJECT_ID":"1997-051TY","EPOCH":"2023-09-15T13:30:04.818528","MEAN_MOTION":14.55965763,"ECCENTRICITY":0.0022916,"INCLINATION":86.3579,"RA_OF_ASC_NODE":348.8063,"ARG_OF_PERICENTER":139.6809,"MEAN_ANOMALY":220.6103,"EPHEMERIS_TYPE":0,"CLASSIFICATION_TYPE":"U","NORAD_CAT_ID":35915,"ELEMENT_SET_NO":999,"REV_AT_EPOCH":74445,"BSTAR":0.0014828,"MEAN_MOTION_DOT":6.562e-5,"MEAN_MOTION_DDOT":0},{"OBJECT_NAME":"IRIDIUM 33 DEB","OBJECT_ID":"1997-051UA","EPOCH":"2023-09-13T22:29:56.568192","MEAN_MOTION":15.14216401,"ECCENTRICITY":0.0010115,"INCLINATION":86.4,"RA_OF_ASC_NODE":333.8847,"ARG_OF_PERICENTER":223.5722,"MEAN_ANOMALY":136.472,"EPHEMERIS_TYPE":0,"CLASSIFICATION_TYPE":"U","NORAD_CAT_ID":35917,"ELEMENT_SET_NO":999,"REV_AT_EPOCH":47345,"BSTAR":0.0070181,"MEAN_MOTION_DOT":0.00130411,"MEAN_MOTION_DDOT":0},{"OBJECT_NAME":"IRIDIUM 33 DEB","OBJECT_ID":"1997-051UB","EPOCH":"2023-09-15T05:15:18.053280","MEAN_MOTION":14.4030974,"ECCENTRICITY":0.0030184,"INCLINATION":86.4019,"RA_OF_ASC_NODE":64.1044,"ARG_OF_PERICENTER":19.9126,"MEAN_ANOMALY":104.5873,"EPHEMERIS_TYPE":0,"CLASSIFICATION_TYPE":"U","NORAD_CAT_ID":35918,"ELEMENT_SET_NO":999,"REV_AT_EPOCH":73366,"BSTAR":0.0013119,"MEAN_MOTION_DOT":4.198e-5,"MEAN_MOTION_DDOT":0},{"OBJECT_NAME":"IRIDIUM 33 DEB","OBJECT_ID":"1997-051UE","EPOCH":"2023-09-14T09:52:22.687680","MEAN_MOTION":14.42279314,"ECCENTRICITY":0.0105556,"INCLINATION":86.4094,"RA_OF_ASC_NODE":137.6913,"ARG_OF_PERICENTER":136.9976,"MEAN_ANOMALY":223.9536,"EPHEMERIS_TYPE":0,"CLASSIFICATION_TYPE":"U","NORAD_CAT_ID":35921,"ELEMENT_SET_NO":999,"REV_AT_EPOCH":53426,"BSTAR":0.0065968,"MEAN_MOTION_DOT":0.00023342,"MEAN_MOTION_DDOT":0},{"OBJECT_NAME":"IRIDIUM 33 DEB","OBJECT_ID":"1997-051UK","EPOCH":"2023-09-15T03:06:38.366208","MEAN_MOTION":14.86896606,"ECCENTRICITY":0.0003513,"INCLINATION":86.3355,"RA_OF_ASC_NODE":314.9719,"ARG_OF_PERICENTER":273.725,"MEAN_ANOMALY":86.3573,"EPHEMERIS_TYPE":0,"CLASSIFICATION_TYPE":"U","NORAD_CAT_ID":35926,"ELEMENT_SET_NO":999,"REV_AT_EPOCH":75322,"BSTAR":0.003754,"MEAN_MOTION_DOT":0.00033674,"MEAN_MOTION_DDOT":0},{"OBJECT_NAME":"IRIDIUM 33 DEB","OBJECT_ID":"1997-051UN","EPOCH":"2023-09-13T22:13:35.662080","MEAN_MOTION":14.6334124,"ECCENTRICITY":0.0026627,"INCLINATION":86.352,"RA_OF_ASC_NODE":326.9919,"ARG_OF_PERICENTER":29.0259,"MEAN_ANOMALY":331.2426,"EPHEMERIS_TYPE":0,"CLASSIFICATION_TYPE":"U","NORAD_CAT_ID":35929,"ELEMENT_SET_NO":999,"REV_AT_EPOCH":75712,"BSTAR":0.0019783,"MEAN_MOTION_DOT":0.00010294,"MEAN_MOTION_DDOT":0},{"OBJECT_NAME":"IRIDIUM 33 DEB","OBJECT_ID":"1997-051US","EPOCH":"2023-09-15T03:07:18.525792","MEAN_MOTION":14.36585482,"ECCENTRICITY":0.0020847,"INCLINATION":86.3469,"RA_OF_ASC_NODE":25.8857,"ARG_OF_PERICENTER":40.7535,"MEAN_ANOMALY":134.7183,"EPHEMERIS_TYPE":0,"CLASSIFICATION_TYPE":"U","NORAD_CAT_ID":36011,"ELEMENT_SET_NO":999,"REV_AT_EPOCH":52753,"BSTAR":0.00072964,"MEAN_MOTION_DOT":2.168e-5,"MEAN_MOTION_DDOT":0},{"OBJECT_NAME":"IRIDIUM 33 DEB","OBJECT_ID":"1997-051UT","EPOCH":"2023-09-15T11:54:48.775104","MEAN_MOTION":13.97000959,"ECCENTRICITY":0.0295633,"INCLINATION":86.4471,"RA_OF_ASC_NODE":270.9474,"ARG_OF_PERICENTER":301.3527,"MEAN_ANOMALY":55.9024,"EPHEMERIS_TYPE":0,"CLASSIFICATION_TYPE":"U","NORAD_CAT_ID":36012,"ELEMENT_SET_NO":999,"REV_AT_EPOCH":72110,"BSTAR":0.0029664,"MEAN_MOTION_DOT":6.003e-5,"MEAN_MOTION_DDOT":0},{"OBJECT_NAME":"IRIDIUM 33 DEB","OBJECT_ID":"1997-051VA","EPOCH":"2023-09-15T13:56:12.080832","MEAN_MOTION":14.70048827,"ECCENTRICITY":0.0006556,"INCLINATION":86.3935,"RA_OF_ASC_NODE":358.7926,"ARG_OF_PERICENTER":96.4783,"MEAN_ANOMALY":326.0267,"EPHEMERIS_TYPE":0,"CLASSIFICATION_TYPE":"U","NORAD_CAT_ID":36019,"ELEMENT_SET_NO":999,"REV_AT_EPOCH":74430,"BSTAR":0.0027396,"MEAN_MOTION_DOT":0.00016492,"MEAN_MOTION_DDOT":0},{"OBJECT_NAME":"IRIDIUM 33 DEB","OBJECT_ID":"1997-051VC","EPOCH":"2023-09-15T13:58:05.079072","MEAN_MOTION":14.64494097,"ECCENTRICITY":0.0075735,"INCLINATION":86.4042,"RA_OF_ASC_NODE":105.2899,"ARG_OF_PERICENTER":266.0252,"MEAN_ANOMALY":93.2301,"EPHEMERIS_TYPE":0,"CLASSIFICATION_TYPE":"U","NORAD_CAT_ID":36021,"ELEMENT_SET_NO":999,"REV_AT_EPOCH":73420,"BSTAR":0.0054513,"MEAN_MOTION_DOT":0.00030231,"MEAN_MOTION_DDOT":0}]
