IRIDIUM 33 DEB          
1 35846U 97051SW  23258.13583674  .00002367  00000+0  78532-3 0  9990
2 35846  86.3774  46.6974 0018226   1.5033 358.6216 14.37364583595318
IRIDIUM 33 DEB          
1 35848U 97051SY  23257.61181181  .00008857  00000+0  20236-2 0  9998
2 35848  86.4023  17.2531 0015513 149.2338 210.9782 14.55566704546734
IRIDIUM 33 DEB          
1 35850U 97051TA  23257.99081505  .00006782  00000+0  15276-2 0  9994
2 35850  86.3625 349.4936 0019158 139.0130 221.2522 14.56166661593423
IRIDIUM 33 DEB          
1 35857U 97051TH  23257.00498537  .00104528  00000+0  89111-2 0  9996
2 35857  86.4259 356.1244 0039608 221.7264 138.0945 14.96629729589905
IRIDIUM 33 DEB          
1 35863U 97051TP  23258.30737420  .00083598  00000+0  78388-2 0  9991
2 35863  86.3370  11.4658 0048980 233.4768 126.1945 14.92695358744703
IRIDIUM 33 DEB          
1 35911U 97051TU  23258.23841557  .00011865  00000+0  35584-2 0  9993
2 35911  86.2363 357.1612 0077151 310.2761  49.1709 14.40959425750505
IRIDIUM 33 DEB          
1 35915U 97051TY  23258.56255577  .00006562  00000+0  14828-2 0  9990
2 35915  86.3579 348.8063 0022916 139.6809 220.6103 14.55965763744450
IRIDIUM 33 DEB          
1 35917U 97051UA  23256.93746028  .00130411  00000+0  70181-2 0  9992
2 35917  86.4000 333.8847 0010115 223.5722 136.4720 15.14216401473453
IRIDIUM 33 DEB          
1 35918U 97051UB  23258.21895895  .00004198  00000+0  13119-2 0  9993
2 35918  86.4019  64.1044 0030184  19.9126 104.5873 14.40309740733664
IRIDIUM 33 DEB          
1 35921U 97051UE  23257.41137370  .00023342  00000+0  65968-2 0  9996
2 35921  86.4094 137.6913 0105556 136.9976 223.9536 14.42279314534263
IRIDIUM 33 DEB          
1 35926U 97051UK  23258.12961072  .00033674  00000+0  37540-2 0  9998
2 35926  86.3355 314.9719 0003513 273.7250  86.3573 14.86896606753224
IRIDIUM 33 DEB          
1 35929U 97051UN  23256.92610720  .00010294  00000+0  19783-2 0  9990
2 35929  86.3520 326.9919 0026627  29.0259 331.2426 14.63341240757124
IRIDIUM 33 DEB          
1 36011U 97051US  23258.13007553  .00002168  00000+0  72964-3 0  9994
2 36011  86.3469  25.8857 0020847  40.7535 134.7183 14.36585482527534
IRIDIUM 33 DEB          
1 36012U 97051UT  23258.49639786  .00006003  00000+0  29664-2 0  9993
2 36012  86.4471 270.9474 0295633 301.3527  55.9024 13.97000959721105
IRIDIUM 33 DEB          
1 36019U 97051VA  23258.58069538  .00016492  00000+0  27396-2 0  9995
2 36019  86.3935 358.7926 0006556  96.4783 326.0267 14.70048827744309
IRIDIUM 33 DEB          
1 36021U 97051VC  23258.58200323  .00030231  00000+0  54513-2 0  9995
2 36021  86.4042 105.2899 0075735 266.0252  93.2301 14.64494097734204
